      2.10          N: GNSS NAV DATA                        RINEX VERSION / TYPE
fic2rin                                 02/11/2023 00:17:45 PGM / RUN BY / DATE
                                                            END OF HEADER
16 23  2 10 16  0  0.0 -.520655885339D-03  .159161572810D-11  .000000000000D+00
     .310000000000D+02  .272812500000D+02  .484555897984D-08  .140996165902D+00
     .165030360222D-05  .133879599161D-01  .421889126301D-05  .515377853584D+04
     .489600000000D+06  .316649675369D-07  .224794853089D+01  .217929482460D-06
     .965915102173D+00  .298750000000D+03  .761812743576D+00 -.852178353792D-08
    -.642883921553D-10  .100000000000D+01  .224800000000D+04  .000000000000D+00
     .240000000000D+01  .000000000000D+00 -.102445483208D-07  .310000000000D+02
     .482400000000D+06  .400000000000D+01
9  23  2 10 16  0  0.0 -.220719259232D-03  .693489710102D-11  .000000000000D+00
     .430000000000D+02 -.720000000000D+02  .475626954629D-08 -.338696648692D+00
    -.397488474846D-05  .250777322799D-02  .820681452751D-05  .515367575264D+04
     .489600000000D+06  .186264514923D-07  .433782508554D-01  .223517417908D-07
     .955990560593D+00  .218531250000D+03  .196416382454D+01 -.825355807954D-08
    -.261796619166D-09  .100000000000D+01  .224800000000D+04  .000000000000D+00
     .240000000000D+01  .000000000000D+00  .139698386192D-08  .430000000000D+02
     .482400000000D+06  .400000000000D+01
13 23  2 10 16  0  0.0  .473906751722D-03  .613908923697D-11  .000000000000D+00
     .330000000000D+02 -.664062500000D+02  .440625496678D-08 -.113991555136D+01
    -.337697565556D-05  .677129242104D-02  .914372503757D-05  .515366985321D+04
     .489600000000D+06  .150874257088D-06  .201895861202D+00  .894069671631D-07
     .969900875145D+00  .207750000000D+03  .935654450061D+00 -.800783355841D-08
    -.277154401736D-09  .100000000000D+01  .224800000000D+04  .000000000000D+00
     .340000000000D+01  .000000000000D+00 -.111758708954D-07  .330000000000D+02
     .482400000000D+06  .400000000000D+01
7  23  2 10 16  0  0.0  .243497546762D-03 -.693489710102D-11  .000000000000D+00
     .102000000000D+03  .408437500000D+02  .455733268834D-08  .278562668853D+01
     .195577740669D-05  .167109302711D-01  .116694718599D-04  .515360068512D+04
     .489600000000D+06  .353902578354D-07  .111475043310D+01 -.216066837311D-06
     .950376874326D+00  .146812500000D+03 -.222556737645D+01 -.773675083816D-08
     .195722438339D-09  .100000000000D+01  .224800000000D+04  .000000000000D+00
     .340000000000D+01  .000000000000D+00 -.111758708954D-07  .102000000000D+03
     .482400000000D+06  .400000000000D+01
6  23  2 10 16  0  0.0  .570774078369D-03  .454747350886D-11  .000000000000D+00
     .720000000000D+02  .303750000000D+02  .367943897769D-08 -.265683197624D+01
     .163167715073D-05  .291142822243D-02  .107511878014D-04  .515361262894D+04
     .489600000000D+06  .465661287308D-07 -.202215682450D+01  .409781932831D-07
     .988627818214D+00  .187250000000D+03 -.843439106110D+00 -.764781856234D-08
     .220009164265D-09  .100000000000D+01  .224800000000D+04  .000000000000D+00
     .240000000000D+01  .000000000000D+00  .372529029846D-08  .720000000000D+02
     .482400000000D+06  .400000000000D+01
27 23  2 10 16  0  0.0  .105627346784D-03 -.909494701773D-11  .000000000000D+00
     .190000000000D+02 -.415625000000D+02  .439804033889D-08 -.664602396043D+00
    -.216253101826D-05  .113075437257D-01  .762008130550D-05  .515366103745D+04
     .489600000000D+06  .111758708954D-06 -.307978883249D+01  .216066837311D-06
     .969305243660D+00  .235093750000D+03  .696826611911D+00 -.816891169653D-08
    -.466448000860D-09  .100000000000D+01  .224800000000D+04  .000000000000D+00
     .240000000000D+01  .000000000000D+00  .186264514923D-08  .190000000000D+02
     .482400000000D+06  .400000000000D+01
15 23  2 10 16  0  0.0  .122725032270D-04  .329691829393D-11  .000000000000D+00
     .890000000000D+02 -.665625000000D+02  .529986361774D-08 -.164882707368D+01
    -.328384339809D-05  .147503421176D-01  .635534524918D-05  .515367395210D+04
     .489600000000D+06  .335276126862D-06 -.721537119603D-01  .102445483208D-06
     .932164974973D+00  .234281250000D+03  .117772033157D+01 -.839606401548D-08
    -.181436128972D-09  .100000000000D+01  .224800000000D+04  .000000000000D+00
     .240000000000D+01  .000000000000D+00 -.107102096081D-07  .890000000000D+02
     .482400000000D+06  .400000000000D+01
31 23  2 10 16  0  0.0 -.208849087358D-03 -.102318153949D-11  .000000000000D+00
     .830000000000D+02  .315000000000D+02  .462162108050D-08  .219309515501D+01
     .160932540894D-05  .107800252736D-01  .108312815428D-04  .515365958977D+04
     .489600000000D+06 -.257045030594D-06  .113428929717D+01 -.447034835815D-07
     .954475090107D+00  .170906250000D+03  .499702097524D+00 -.795818863336D-08
     .172864343351D-09  .100000000000D+01  .224800000000D+04  .000000000000D+00
     .240000000000D+01  .000000000000D+00 -.135041773319D-07  .830000000000D+02
     .482400000000D+06  .400000000000D+01
32 23  2 10 16  0  0.0 -.391981098801D-03 -.117097442853D-10  .000000000000D+00
     .510000000000D+02 -.639687500000D+02  .470519599030D-08  .119908841085D-01
    -.335462391376D-05  .659072864801D-02  .803731381893D-05  .515370883942D+04
     .489600000000D+06 -.670552253723D-07  .560926181741D-01  .502914190292D-07
     .959670194550D+00  .225625000000D+03 -.225855160460D+01 -.826105839196D-08
    -.260367988229D-09  .100000000000D+01  .224800000000D+04  .000000000000D+00
     .240000000000D+01  .000000000000D+00  .465661287308D-09  .510000000000D+02
     .482400000000D+06  .400000000000D+01
24 23  2 10 16  0  0.0 -.679958611727D-04 -.161435309565D-10  .000000000000D+00
     .590000000000D+02  .200312500000D+02  .499413659726D-08 -.262311986297D+01
     .908970832825D-06  .137123815948D-01  .110659748316D-04  .515366710472D+04
     .489600000000D+06  .158324837685D-06  .102587959637D+01 -.184401869774D-06
     .934008027926D+00  .148843750000D+03  .883787504406D+00 -.804676375144D-08
     .239295681911D-09  .100000000000D+01  .224800000000D+04  .000000000000D+00
     .240000000000D+01  .000000000000D+00  .232830643654D-08  .590000000000D+02
     .482400000000D+06  .400000000000D+01
26 23  2 10 16  0  0.0  .241374596953D-03  .341060513165D-12  .000000000000D+00
     .350000000000D+02  .477500000000D+02  .550737226130D-08  .110818707601D+01
     .277534127235D-05  .785264489241D-02  .461935997009D-05  .515363534546D+04
     .489600000000D+06 -.130385160446D-07  .209477011803D+01  .122934579849D-06
     .934511593587D+00  .275406250000D+03  .446519830520D+00 -.872893502375D-08
    -.417874549009D-10  .100000000000D+01  .224800000000D+04  .000000000000D+00
     .240000000000D+01  .000000000000D+00  .698491930962D-08  .350000000000D+02
     .482400000000D+06  .400000000000D+01
21 23  2 10 16  0  0.0  .153922475874D-03  .227373675443D-12  .000000000000D+00
     .830000000000D+02  .195312500000D+02  .431267964042D-08 -.730621236690D+00
     .838190317154D-06  .248602627544D-01  .105090439320D-04  .515365328789D+04
     .489600000000D+06 -.415369868279D-06 -.211457055331D+01 -.217929482460D-06
     .961432925986D+00  .185093750000D+03 -.818204772804D+00 -.820462746995D-08
     .384301721995D-09  .100000000000D+01  .224800000000D+04  .000000000000D+00
     .240000000000D+01  .000000000000D+00 -.102445483208D-07  .830000000000D+02
     .482400000000D+06  .400000000000D+01
19 23  2 10 16  0  0.0  .275895930827D-03  .511590769747D-11  .000000000000D+00
     .640000000000D+02 -.506875000000D+02  .422017578726D-08  .142436114704D+01
    -.273250043392D-05  .909144850448D-02  .822357833385D-05  .515360489845D+04
     .489600000000D+06  .258907675743D-06 -.297029123413D+01 -.223517417908D-07
     .974965190322D+00  .226562500000D+03  .223882494281D+01 -.795390274055D-08
    -.490377569051D-09  .100000000000D+01  .224800000000D+04  .000000000000D+00
     .240000000000D+01  .000000000000D+00 -.153668224812D-07  .640000000000D+02
     .482400000000D+06  .400000000000D+01
17 23  2 10 16  0  0.0  .699154566973D-03  .238742359215D-11  .000000000000D+00
     .760000000000D+02 -.429062500000D+02  .427232081645D-08 -.712744171490D+00
    -.224821269512D-05  .136720999144D-01  .863894820213D-05  .515371240616D+04
     .489600000000D+06 -.139698386192D-06 -.301488596866D+01  .856816768646D-07
     .975957395491D+00  .226343750000D+03 -.142176675253D+01 -.823498587736D-08
    -.368943939425D-09  .100000000000D+01  .224800000000D+04  .000000000000D+00
     .240000000000D+01  .000000000000D+00 -.111758708954D-07  .760000000000D+02
     .482400000000D+06  .400000000000D+01
25 23  2 10 16  0  0.0  .418955460191D-03  .318323145621D-11  .000000000000D+00
     .460000000000D+02  .408437500000D+02  .498449333844D-08  .189702664739D+01
     .186264514923D-05  .111472358694D-01  .514090061188D-05  .515377557182D+04
     .489600000000D+06 -.212341547012D-06  .214848479505D+01 -.203028321266D-06
     .953743064918D+00  .276031250000D+03  .102896623941D+01 -.835749098019D-08
     .628597612185D-10  .100000000000D+01  .224800000000D+04  .000000000000D+00
     .240000000000D+01  .000000000000D+00  .558793544769D-08  .460000000000D+02
     .482400000000D+06  .400000000000D+01
18 23  2 10 16  0  0.0 -.135026872158D-03 -.158024704433D-10  .000000000000D+00
     .690000000000D+02  .328125000000D+02  .400409535807D-08 -.278559131371D+01
     .173039734364D-05  .296415889170D-02  .975281000137D-05  .515369722557D+04
     .489600000000D+06 -.149011611938D-07 -.201131612609D+01 -.745058059692D-08
     .973240531329D+00  .199937500000D+03 -.310629230867D+01 -.779318176016D-08
     .240367155114D-09  .100000000000D+01  .224800000000D+04  .000000000000D+00
     .240000000000D+01  .000000000000D+00 -.838190317154D-08  .325000000000D+03
     .482400000000D+06  .400000000000D+01
